[{"OBJECT_NAME":"STARLINK-34278","OBJECT_ID":"2025-127X","EPOCH":"2026-03-09T09:11:54.897792","MEAN_MOTION":15.27574143,"ECCENTRICITY":0.00011766,"INCLINATION":42.9994,"RA_OF_ASC_NODE":181.2082,"ARG_OF_PERICENTER":232.4641,"MEAN_ANOMALY":127.6104,"EPHEMERIS_TYPE":0,"CLASSIFICATION_TYPE":"U","NORAD_CAT_ID":64391,"ELEMENT_SET_NO":999,"REV_AT_EPOCH":4242,"BSTAR":0.0010566033,"MEAN_MOTION_DOT":0.00028922,"MEAN_MOTION_DDOT":0},{"OBJECT_NAME":"COSMOS 2251 DEB","OBJECT_ID":"1993-036BXP","EPOCH":"2026-03-04T07:23:49.847712","MEAN_MOTION":15.24789556,"ECCENTRICITY":0.00190834,"INCLINATION":73.9759,"RA_OF_ASC_NODE":64.3004,"ARG_OF_PERICENTER":239.4537,"MEAN_ANOMALY":120.4779,"EPHEMERIS_TYPE":0,"CLASSIFICATION_TYPE":"U","NORAD_CAT_ID":47059,"ELEMENT_SET_NO":999,"REV_AT_EPOCH":9543,"BSTAR":0.0048704033,"MEAN_MOTION_DOT":0.00123422,"MEAN_MOTION_DDOT":0}]
